{"type": "FeatureCollection", "features": [ {"type": "Feature", "properties": {"norad_id": 43108, "name": "BEIDOU-3 M8 (C28)", "group": "beidou", "lat": -25.105424344014132, "lon": 148.099864133305, "alt_km": 21525.896895635404, "timestamp": "2025-12-18T15:47:11.488313+00:00", "meta": {"OBJECT_NAME": "BEIDOU-3 M8 (C28)", "OBJECT_ID": "2018-003B", "EPOCH": "2025-12-17T06:26:34.084320", "MEAN_MOTION": 1.8623095, "ECCENTRICITY": 0.00046498, "INCLINATION": 54.4854, "RA_OF_ASC_NODE": 308.6394, "ARG_OF_PERICENTER": 276.4476, "MEAN_ANOMALY": 83.4857, "EPHEMERIS_TYPE": 0, "CLASSIFICATION_TYPE": "U", "NORAD_CAT_ID": 43108, "ELEMENT_SET_NO": 999, "REV_AT_EPOCH": 5397, "BSTAR": 0, "MEAN_MOTION_DOT": -9.2e-07, "MEAN_MOTION_DDOT": 0}, "tle": {"line1": "1 43108U 18003B   25351.26845005 -.00000092  00000+0  00000+0 0  9994", "line2": "2 43108  54.4854 308.6394 0004649 276.4476  83.4857  1.86230950 53973"}}, "geometry": {"type": "Point", "coordinates": [148.099864133305, -25.105424344014132]}}, {"type": "Feature", "properties": {"norad_id": 43207, "name": "BEIDOU-3 M4 (C22)", "group": "beidou", "lat": -56.171145408294485, "lon": -11.649051121577928, "alt_km": 21534.41100623501, "timestamp": "2025-12-18T15:47:11.488324+00:00", "meta": {"OBJECT_NAME": "BEIDOU-3 M4 (C22)", "OBJECT_ID": "2018-018A", "EPOCH": "2025-12-18T05:56:14.140032", "MEAN_MOTION": 1.86231343, "ECCENTRICITY": 0.00041251, "INCLINATION": 56.4908, "RA_OF_ASC_NODE": 69.1218, "ARG_OF_PERICENTER": 7.109, "MEAN_ANOMALY": 352.9257, "EPHEMERIS_TYPE": 0, "CLASSIFICATION_TYPE": "U", "NORAD_CAT_ID": 43207, "ELEMENT_SET_NO": 999, "REV_AT_EPOCH": 5337, "BSTAR": 0, "MEAN_MOTION_DOT": -6.5e-07, "MEAN_MOTION_DDOT": 0}, "tle": {"line1": "1 43207U 18018A   25352.24738588 -.00000065  00000+0  00000+0 0  9996", "line2": "2 43207  56.4908  69.1218 0004125   7.1090 352.9257  1.86231343 53378"}}, "geometry": {"type": "Point", "coordinates": [-11.649051121577928, -56.171145408294485]}}, {"type": "Feature", "properties": {"norad_id": 43208, "name": "BEIDOU-3 M3 (C21)", "group": "beidou", "lat": -40.02975593088379, "lon": -77.11676773648743, "alt_km": 21531.22583820842, "timestamp": "2025-12-18T15:47:11.488335+00:00", "meta": {"OBJECT_NAME": "BEIDOU-3 M3 (C21)", "OBJECT_ID": "2018-018B", "EPOCH": "2025-12-18T07:32:00.650688", "MEAN_MOTION": 1.86231513, "ECCENTRICITY": 0.00067661, "INCLINATION": 56.4899, "RA_OF_ASC_NODE": 69.1239, "ARG_OF_PERICENTER": 315.6193, "MEAN_ANOMALY": 44.3557, "EPHEMERIS_TYPE": 0, "CLASSIFICATION_TYPE": "U", "NORAD_CAT_ID": 43208, "ELEMENT_SET_NO": 999, "REV_AT_EPOCH": 5337, "BSTAR": 0, "MEAN_MOTION_DOT": -6.4e-07, "MEAN_MOTION_DDOT": 0}, "tle": {"line1": "1 43208U 18018B   25352.31389642 -.00000064  00000+0  00000+0 0  9997", "line2": "2 43208  56.4899  69.1239 0006766 315.6193  44.3557  1.86231513 53379"}}, "geometry": {"type": "Point", "coordinates": [-77.11676773648743, -40.02975593088379]}}, {"type": "Feature", "properties": {"norad_id": 43245, "name": "BEIDOU-3 M9 (C29)", "group": "beidou", "lat": 54.131158522344236, "lon": 28.698288960670308, "alt_km": 21526.034386215673, "timestamp": "2025-12-18T15:47:11.488346+00:00", "meta": {"OBJECT_NAME": "BEIDOU-3 M9 (C29)", "OBJECT_ID": "2018-029A", "EPOCH": "2025-12-17T23:50:09.526848", "MEAN_MOTION": 1.86228477, "ECCENTRICITY": 0.00015623, "INCLINATION": 54.3607, "RA_OF_ASC_NODE": 306.2844, "ARG_OF_PERICENTER": 287.552, "MEAN_ANOMALY": 72.4185, "EPHEMERIS_TYPE": 0, "CLASSIFICATION_TYPE": "U", "NORAD_CAT_ID": 43245, "ELEMENT_SET_NO": 999, "REV_AT_EPOCH": 5252, "BSTAR": 0, "MEAN_MOTION_DOT": -8.6e-07, "MEAN_MOTION_DDOT": 0}, "tle": {"line1": "1 43245U 18029A   25351.99316582 -.00000086  00000+0  00000+0 0  9990", "line2": "2 43245  54.3607 306.2844 0001562 287.5520  72.4185  1.86228477 52521"}}, "geometry": {"type": "Point", "coordinates": [28.698288960670308, 54.131158522344236]}}, {"type": "Feature", "properties": {"norad_id": 43246, "name": "BEIDOU-3 M10 (C30)", "group": "beidou", "lat": 39.11441097464013, "lon": 90.60987016716071, "alt_km": 21530.274855830787, "timestamp": "2025-12-18T15:47:11.488357+00:00", "meta": {"OBJECT_NAME": "BEIDOU-3 M10 (C30)", "OBJECT_ID": "2018-029B", "EPOCH": "2025-12-17T09:23:40.675200", "MEAN_MOTION": 1.8622912, "ECCENTRICITY": 0.00041993, "INCLINATION": 54.3586, "RA_OF_ASC_NODE": 306.3321, "ARG_OF_PERICENTER": 3.5987, "MEAN_ANOMALY": 356.3911, "EPHEMERIS_TYPE": 0, "CLASSIFICATION_TYPE": "U", "NORAD_CAT_ID": 43246, "ELEMENT_SET_NO": 999, "REV_AT_EPOCH": 5249, "BSTAR": 0, "MEAN_MOTION_DOT": -9e-07, "MEAN_MOTION_DDOT": 0}, "tle": {"line1": "1 43246U 18029B   25351.39144300 -.00000090  00000+0  00000+0 0  9997", "line2": "2 43246  54.3586 306.3321 0004199   3.5987 356.3911  1.86229120 52494"}}, "geometry": {"type": "Point", "coordinates": [90.60987016716071, 39.11441097464013]}}, {"type": "Feature", "properties": {"norad_id": 43539, "name": "BEIDOU-2 IGSO-7 (C16)", "group": "beidou", "lat": -55.103192406984995, "lon": 76.12843935484142, "alt_km": 35477.97186724916, "timestamp": "2025-12-18T15:47:11.488369+00:00", "meta": {"OBJECT_NAME": "BEIDOU-2 IGSO-7 (C16)", "OBJECT_ID": "2018-057A", "EPOCH": "2025-12-15T07:47:07.120608", "MEAN_MOTION": 1.00256546, "ECCENTRICITY": 0.00926218, "INCLINATION": 55.1766, "RA_OF_ASC_NODE": 164.6485, "ARG_OF_PERICENTER": 235.2644, "MEAN_ANOMALY": 271.8458, "EPHEMERIS_TYPE": 0, "CLASSIFICATION_TYPE": "U", "NORAD_CAT_ID": 43539, "ELEMENT_SET_NO": 999, "REV_AT_EPOCH": 2728, "BSTAR": 0, "MEAN_MOTION_DOT": -2.3e-07, "MEAN_MOTION_DDOT": 0}, "tle": {"line1": "1 43539U 18057A   25349.32438797 -.00000023  00000+0  00000+0 0  9995", "line2": "2 43539  55.1766 164.6485 0092621 235.2644 271.8458  1.00256546 27289"}}, "geometry": {"type": "Point", "coordinates": [76.12843935484142, -55.103192406984995]}}, {"type": "Feature", "properties": {"norad_id": 43581, "name": "BEIDOU-3 M5 (C23)", "group": "beidou", "lat": -17.361003839090404, "lon": 175.34763834998577, "alt_km": 21525.20780812912, "timestamp": "2025-12-18T15:47:11.488380+00:00", "meta": {"OBJECT_NAME": "BEIDOU-3 M5 (C23)", "OBJECT_ID": "2018-062A", "EPOCH": "2025-12-17T01:53:59.361792", "MEAN_MOTION": 1.86228923, "ECCENTRICITY": 0.00020674, "INCLINATION": 54.0895, "RA_OF_ASC_NODE": 188.4955, "ARG_OF_PERICENTER": 356.8892, "MEAN_ANOMALY": 3.1782, "EPHEMERIS_TYPE": 0, "CLASSIFICATION_TYPE": "U", "NORAD_CAT_ID": 43581, "ELEMENT_SET_NO": 999, "REV_AT_EPOCH": 5024, "BSTAR": 0, "MEAN_MOTION_DOT": 1.14e-06, "MEAN_MOTION_DDOT": 0}, "tle": {"line1": "1 43581U 18062A   25351.07915928  .00000114  00000+0  00000+0 0  9999", "line2": "2 43581  54.0895 188.4955 0002067 356.8892   3.1782  1.86228923 50243"}}, "geometry": {"type": "Point", "coordinates": [175.34763834998577, -17.361003839090404]}}, {"type": "Feature", "properties": {"norad_id": 43582, "name": "BEIDOU-3 M6 (C24)", "group": "beidou", "lat": 49.66826287623673, "lon": -112.91758490802833, "alt_km": 21502.023773045534, "timestamp": "2025-12-18T15:47:11.488392+00:00", "meta": {"OBJECT_NAME": "BEIDOU-3 M6 (C24)", "OBJECT_ID": "2018-062B", "EPOCH": "2025-12-18T00:23:12.259968", "MEAN_MOTION": 1.86229952, "ECCENTRICITY": 0.00078372, "INCLINATION": 54.0891, "RA_OF_ASC_NODE": 188.4528, "ARG_OF_PERICENTER": 47.7556, "MEAN_ANOMALY": 312.3777, "EPHEMERIS_TYPE": 0, "CLASSIFICATION_TYPE": "U", "NORAD_CAT_ID": 43582, "ELEMENT_SET_NO": 999, "REV_AT_EPOCH": 5026, "BSTAR": 0, "MEAN_MOTION_DOT": 1.1e-06, "MEAN_MOTION_DDOT": 0}, "tle": {"line1": "1 43582U 18062B   25352.01611412  .00000110  00000+0  00000+0 0  9992", "line2": "2 43582  54.0891 188.4528 0007837  47.7556 312.3777  1.86229952 50263"}}, "geometry": {"type": "Point", "coordinates": [-112.91758490802833, 49.66826287623673]}}, {"type": "Feature", "properties": {"norad_id": 43602, "name": "BEIDOU-3 M12 (C26)", "group": "beidou", "lat": 48.70293282008928, "lon": -48.1708391195168, "alt_km": 21514.137605345422, "timestamp": "2025-12-18T15:47:11.488403+00:00", "meta": {"OBJECT_NAME": "BEIDOU-3 M12 (C26)", "OBJECT_ID": "2018-067A", "EPOCH": "2025-12-17T22:53:45.555072", "MEAN_MOTION": 1.86227791, "ECCENTRICITY": 0.00092249, "INCLINATION": 54.1833, "RA_OF_ASC_NODE": 187.186, "ARG_OF_PERICENTER": 41.0055, "MEAN_ANOMALY": 319.1284, "EPHEMERIS_TYPE": 0, "CLASSIFICATION_TYPE": "U", "NORAD_CAT_ID": 43602, "ELEMENT_SET_NO": 999, "REV_AT_EPOCH": 4974, "BSTAR": 0, "MEAN_MOTION_DOT": 1.1e-06, "MEAN_MOTION_DDOT": 0}, "tle": {"line1": "1 43602U 18067A   25351.95399948  .00000110  00000+0  00000+0 0  9999", "line2": "2 43602  54.1833 187.1860 0009224  41.0055 319.1284  1.86227791 49749"}}, "geometry": {"type": "Point", "coordinates": [-48.1708391195168, 48.70293282008928]}}, {"type": "Feature", "properties": {"norad_id": 43603, "name": "BEIDOU-3 M11 (C25)", "group": "beidou", "lat": 17.418820907555407, "lon": -159.76419967321982, "alt_km": 21511.27891702124, "timestamp": "2025-12-18T15:47:11.488415+00:00", "meta": {"OBJECT_NAME": "BEIDOU-3 M11 (C25)", "OBJECT_ID": "2018-067B", "EPOCH": "2025-12-17T00:21:01.872864", "MEAN_MOTION": 1.86227285, "ECCENTRICITY": 0.00055921, "INCLINATION": 54.1804, "RA_OF_ASC_NODE": 187.182, "ARG_OF_PERICENTER": 36.5835, "MEAN_ANOMALY": 323.5212, "EPHEMERIS_TYPE": 0, "CLASSIFICATION_TYPE": "U", "NORAD_CAT_ID": 43603, "ELEMENT_SET_NO": 999, "REV_AT_EPOCH": 4975, "BSTAR": 0, "MEAN_MOTION_DOT": 1.14e-06, "MEAN_MOTION_DDOT": 0}, "tle": {"line1": "1 43603U 18067B   25351.01460501  .00000114  00000+0  00000+0 0  9995", "line2": "2 43603  54.1804 187.1820 0005592  36.5835 323.5212  1.86227285 49752"}}, "geometry": {"type": "Point", "coordinates": [-159.76419967321982, 17.418820907555407]}}]}